1998-067XU              
1 66908U 98067XU  26030.05207484  .00117469  00000+0  14337-2 0  9997
2 66908  51.6273 261.1529 0002809 150.0773 210.0381 15.59570858  9134
SILVERSAT               
1 66909U 98067XV  26030.35461385  .00131519  00000+0  15298-2 0  9992
2 66909  51.6279 259.4248 0003288 163.8706 196.2392 15.60771787  9187
1998-067XW              
1 66910U 98067XW  26030.36276135  .00109916  00000+0  13335-2 0  9998
2 66910  51.6269 259.4751 0001545 149.9128 210.1954 15.59763179  9188
1998-067XX              
1 66911U 98067XX  26030.01152424  .00124951  00000+0  14017-2 0  9999
2 66911  51.6259 260.8786 0002420 180.1985 179.9008 15.61740265  9123
1998-067XY              
1 66912U 98067XY  26030.02472251  .00077959  00000+0  10441-2 0  9996
2 66912  51.6286 261.7221 0002425 121.2070 238.9160 15.57293463  9116
